{
  "type": "FeatureCollection",
  "features": [
    {
      "type": "Feature",
      "properties": {
        "norad_id": 35606,
        "name": "COSMOS 2251 DEB",
        "group": "cosmos-2251-debris",
        "lat": 6.664584000708708,
        "lon": 164.9675325581324,
        "alt_km": 778.8618113240436,
        "timestamp": "2025-12-27T17:24:57.804111+00:00",
        "meta_object_name": "COSMOS 2251 DEB",
        "meta_object_id": "1993-036AMZ",
        "meta_epoch": "2025-12-23T17:40:03.776448",
        "meta_mean_motion": 13.41219482,
        "meta_eccentricity": 0.0456715,
        "meta_inclination": 73.8099,
        "meta_ra_of_asc_node": 353.2688,
        "meta_arg_of_pericenter": 197.3533,
        "meta_mean_anomaly": 161.1513,
        "meta_ephemeris_type": 0,
        "meta_classification_type": "U",
        "meta_norad_cat_id": 35606,
        "meta_element_set_no": 999,
        "meta_rev_at_epoch": 61187,
        "meta_bstar": 0.00021068754,
        "meta_mean_motion_dot": 1.94e-06,
        "meta_mean_motion_ddot": 0,
        "tle_line1": "1 35606U 93036AMZ 25357.73615482  .00000194  00000+0  21069-3 0  9993",
        "tle_line2": "2 35606  73.8099 353.2688 0456715 197.3533 161.1513 13.41219482611878"
      },
      "geometry": {
        "type": "Point",
        "coordinates": [
          164.9675325581324,
          6.664584000708708
        ]
      }
    },
    {
      "type": "Feature",
      "properties": {
        "norad_id": 35611,
        "name": "COSMOS 2251 DEB",
        "group": "cosmos-2251-debris",
        "lat": -22.513038575977248,
        "lon": -23.094530715425524,
        "alt_km": 641.6546628195238,
        "timestamp": "2025-12-27T17:24:57.804121+00:00",
        "meta_object_name": "COSMOS 2251 DEB",
        "meta_object_id": "1993-036ANE",
        "meta_epoch": "2025-12-19T11:16:40.848672",
        "meta_mean_motion": 14.73020971,
        "meta_eccentricity": 0.0021353,
        "meta_inclination": 74.0189,
        "meta_ra_of_asc_node": 166.1787,
        "meta_arg_of_pericenter": 238.9125,
        "meta_mean_anomaly": 120.9952,
        "meta_ephemeris_type": 0,
        "meta_classification_type": "U",
        "meta_norad_cat_id": 35611,
        "meta_element_set_no": 999,
        "meta_rev_at_epoch": 87389,
        "meta_bstar": 0.0015718,
        "meta_mean_motion_dot": 0.0001012,
        "meta_mean_motion_ddot": 0,
        "tle_line1": "1 35611U 93036ANE 25353.46991723  .00010120  00000+0  15718-2 0  9993",
        "tle_line2": "2 35611  74.0189 166.1787 0021353 238.9125 120.9952 14.73020971873894"
      },
      "geometry": {
        "type": "Point",
        "coordinates": [
          -23.094530715425524,
          -22.513038575977248
        ]
      }
    },
    {
      "type": "Feature",
      "properties": {
        "norad_id": 35614,
        "name": "COSMOS 2251 DEB",
        "group": "cosmos-2251-debris",
        "lat": 1.6050113852998245,
        "lon": -61.13643367165506,
        "alt_km": 716.9062537622513,
        "timestamp": "2025-12-27T17:24:57.804131+00:00",
        "meta_object_name": "COSMOS 2251 DEB",
        "meta_object_id": "1993-036ANH",
        "meta_epoch": "2025-12-27T02:40:46.894368",
        "meta_mean_motion": 14.67135192,
        "meta_eccentricity": 0.00749259,
        "meta_inclination": 73.9589,
        "meta_ra_of_asc_node": 299.5919,
        "meta_arg_of_pericenter": 150.2949,
        "meta_mean_anomaly": 210.2508,
        "meta_ephemeris_type": 0,
        "meta_classification_type": "U",
        "meta_norad_cat_id": 35614,
        "meta_element_set_no": 999,
        "meta_rev_at_epoch": 87940,
        "meta_bstar": 0.00089232361,
        "meta_mean_motion_dot": 5.202e-05,
        "meta_mean_motion_ddot": 0,
        "tle_line1": "1 35614U 93036ANH 25361.11165387  .00005202  00000+0  89232-3 0  9994",
        "tle_line2": "2 35614  73.9589 299.5919 0074925 150.2949 210.2508 14.67135192879408"
      },
      "geometry": {
        "type": "Point",
        "coordinates": [
          -61.13643367165506,
          1.6050113852998245
        ]
      }
    },
    {
      "type": "Feature",
      "properties": {
        "norad_id": 35645,
        "name": "COSMOS 2251 DEB",
        "group": "cosmos-2251-debris",
        "lat": 8.915696641884201,
        "lon": 62.247037031530645,
        "alt_km": 785.2647342320652,
        "timestamp": "2025-12-27T17:24:57.804141+00:00",
        "meta_object_name": "COSMOS 2251 DEB",
        "meta_object_id": "1993-036ANL",
        "meta_epoch": "2025-12-25T10:34:11.479296",
        "meta_mean_motion": 14.45753423,
        "meta_eccentricity": 0.0069637,
        "meta_inclination": 73.9639,
        "meta_ra_of_asc_node": 63.9405,
        "meta_arg_of_pericenter": 220.3088,
        "meta_mean_anomaly": 139.2896,
        "meta_ephemeris_type": 0,
        "meta_classification_type": "U",
        "meta_norad_cat_id": 35645,
        "meta_element_set_no": 999,
        "meta_rev_at_epoch": 86955,
        "meta_bstar": 0.0018908,
        "meta_mean_motion_dot": 6.883e-05,
        "meta_mean_motion_ddot": 0,
        "tle_line1": "1 35645U 93036ANL 25359.44041064  .00006883  00000+0  18908-2 0  9993",
        "tle_line2": "2 35645  73.9639  63.9405 0069637 220.3088 139.2896 14.45753423869552"
      },
      "geometry": {
        "type": "Point",
        "coordinates": [
          62.247037031530645,
          8.915696641884201
        ]
      }
    },
    {
      "type": "Feature",
      "properties": {
        "norad_id": 35646,
        "name": "COSMOS 2251 DEB",
        "group": "cosmos-2251-debris",
        "lat": 33.736177341019214,
        "lon": 43.39194984324992,
        "alt_km": 1174.1852830514927,
        "timestamp": "2025-12-27T17:24:57.804152+00:00",
        "meta_object_name": "COSMOS 2251 DEB",
        "meta_object_id": "1993-036ANM",
        "meta_epoch": "2025-12-26T18:32:55.078080",
        "meta_mean_motion": 13.40837286,
        "meta_eccentricity": 0.04556604,
        "meta_inclination": 73.8713,
        "meta_ra_of_asc_node": 33.7616,
        "meta_arg_of_pericenter": 141.5666,
        "meta_mean_anomaly": 341.3849,
        "meta_ephemeris_type": 0,
        "meta_classification_type": "U",
        "meta_norad_cat_id": 35646,
        "meta_element_set_no": 999,
        "meta_rev_at_epoch": 82046,
        "meta_bstar": 0.00042220461,
        "meta_mean_motion_dot": 4.1e-06,
        "meta_mean_motion_ddot": 0,
        "tle_line1": "1 35646U 93036ANM 25360.77285970  .00000410  00000+0  42220-3 0  9993",
        "tle_line2": "2 35646  73.8713  33.7616 0455660 141.5666 341.3849 13.40837286820460"
      },
      "geometry": {
        "type": "Point",
        "coordinates": [
          43.39194984324992,
          33.736177341019214
        ]
      }
    },
    {
      "type": "Feature",
      "properties": {
        "norad_id": 35647,
        "name": "COSMOS 2251 DEB",
        "group": "cosmos-2251-debris",
        "lat": -27.629355823915855,
        "lon": -101.93528021269643,
        "alt_km": 723.4640745772949,
        "timestamp": "2025-12-27T17:24:57.804165+00:00",
        "meta_object_name": "COSMOS 2251 DEB",
        "meta_object_id": "1993-036ANN",
        "meta_epoch": "2025-12-24T03:04:08.125248",
        "meta_mean_motion": 14.43689782,
        "meta_eccentricity": 0.00461776,
        "meta_inclination": 74.0232,
        "meta_ra_of_asc_node": 273.3799,
        "meta_arg_of_pericenter": 9.8571,
        "meta_mean_anomaly": 350.348,
        "meta_ephemeris_type": 0,
        "meta_classification_type": "U",
        "meta_norad_cat_id": 35647,
        "meta_element_set_no": 999,
        "meta_rev_at_epoch": 67828,
        "meta_bstar": 0.0007860854,
        "meta_mean_motion_dot": 2.678e-05,
        "meta_mean_motion_ddot": 0,
        "tle_line1": "1 35647U 93036ANN 25358.12787182  .00002678  00000+0  78609-3 0  9990",
        "tle_line2": "2 35647  74.0232 273.3799 0046177   9.8571 350.3480 14.43689782678286"
      },
      "geometry": {
        "type": "Point",
        "coordinates": [
          -101.93528021269643,
          -27.629355823915855
        ]
      }
    },
    {
      "type": "Feature",
      "properties": {
        "norad_id": 35650,
        "name": "COSMOS 2251 DEB",
        "group": "cosmos-2251-debris",
        "lat": 31.340077056889765,
        "lon": 159.16962219300882,
        "alt_km": 619.2238872886537,
        "timestamp": "2025-12-27T17:24:57.804178+00:00",
        "meta_object_name": "COSMOS 2251 DEB",
        "meta_object_id": "1993-036ANR",
        "meta_epoch": "2025-12-24T10:09:10.296576",
        "meta_mean_motion": 14.83923288,
        "meta_eccentricity": 0.00151483,
        "meta_inclination": 74.0477,
        "meta_ra_of_asc_node": 355.7395,
        "meta_arg_of_pericenter": 38.3431,
        "meta_mean_anomaly": 112.3443,
        "meta_ephemeris_type": 0,
        "meta_classification_type": "U",
        "meta_norad_cat_id": 35650,
        "meta_element_set_no": 999,
        "meta_rev_at_epoch": 87807,
        "meta_bstar": 0.0020058306,
        "meta_mean_motion_dot": 0.00016711,
        "meta_mean_motion_ddot": 0,
        "tle_line1": "1 35650U 93036ANR 25358.42303584  .00016711  00000+0  20058-2 0  9994",
        "tle_line2": "2 35650  74.0477 355.7395 0015148  38.3431 112.3443 14.83923288878074"
      },
      "geometry": {
        "type": "Point",
        "coordinates": [
          159.16962219300882,
          31.340077056889765
        ]
      }
    }
  ]
}